OBJECT B                
1 51825U 22019B   24313.92199954  .00036199  00000+0  12884-2 0  9998
2 51825  97.4131  23.9596 0013781  89.9170 270.3649 15.28779812149281
